[{"OBJECT_NAME":"RISAT-2BR2","OBJECT_ID":"2020-081A","EPOCH":"2026-03-09T12:34:56.452800","MEAN_MOTION":15.01602463,"ECCENTRICITY":0.00109054,"INCLINATION":36.898,"RA_OF_ASC_NODE":95.9121,"ARG_OF_PERICENTER":52.9142,"MEAN_ANOMALY":307.2595,"EPHEMERIS_TYPE":0,"CLASSIFICATION_TYPE":"U","NORAD_CAT_ID":46905,"ELEMENT_SET_NO":999,"REV_AT_EPOCH":29248,"BSTAR":0.00037609291,"MEAN_MOTION_DOT":4.901e-5,"MEAN_MOTION_DDOT":0},{"OBJECT_NAME":"STARLINK-34980","OBJECT_ID":"2025-179Z","EPOCH":"2026-03-09T15:54:22.888224","MEAN_MOTION":15.05645298,"ECCENTRICITY":0.0002258,"INCLINATION":97.6034,"RA_OF_ASC_NODE":112.9269,"ARG_OF_PERICENTER":106.0664,"MEAN_ANOMALY":254.0812,"EPHEMERIS_TYPE":0,"CLASSIFICATION_TYPE":"U","NORAD_CAT_ID":65258,"ELEMENT_SET_NO":999,"REV_AT_EPOCH":3181,"BSTAR":-0.0002028248,"MEAN_MOTION_DOT":-2.986e-5,"MEAN_MOTION_DDOT":0}]
