RISAT-2BR2              
1 46905U 20081A   26068.52426450  .00004901  00000+0  37609-3 0  9996
2 46905  36.8980  95.9121 0010905  52.9142 307.2595 15.01602463292489
STARLINK-34980          
1 65258U 25179Z   26068.66276491 -.00002986  00000+0 -20282-3 0  9996
2 65258  97.6034 112.9269 0002258 106.0664 254.0812 15.05645298 31817
